start=new Date('2022-07-18T00:00:00.000Z').valueOf();
sats=[{"ARG_OF_PERICENTER":"23.0500","SEMIMAJOR_AXIS":"6795.196","DECAY_DATE":null,"MEAN_MOTION_DOT":"-0.00000957","MEAN_MOTION_DDOT":"0.0000000000000","OBJECT_NAME":"STARLINK-3817","MEAN_ANOMALY":"144.2878","MEAN_ELEMENT_THEORY":"SGP4","REF_FRAME":"TEME","EPHEMERIS_TYPE":"0","EPOCH":"2022-07-17T22:00:00.999936","CLASSIFICATION_TYPE":"U","PERIAPSIS":"416.437","RCS_SIZE":"LARGE","TIME_SYSTEM":"UTC","FILE":"3516387","TLE_LINE2":"2 52367  53.2175  46.1274 0000919  23.0500 144.2878 15.49885961  1305","REV_AT_EPOCH":"130","INCLINATION":"53.2175","SITE":"AFETR","PERIOD":"92.910","CENTER_NAME":"EARTH","COUNTRY_CODE":"US","OBJECT_TYPE":"PAYLOAD","MEAN_MOTION":"15.49885961","TLE_LINE1":"1 52367U 22045AN  22198.91667824 -.00000957  00000-0 -89151-5 0  9993","ELEMENT_SET_NO":"999","GP_ID":"208341176","BSTAR":"-0.00000891510000","RA_OF_ASC_NODE":"46.1274","APOAPSIS":"417.686","NORAD_CAT_ID":"52367","LAUNCH_DATE":"2022-04-29","OBJECT_ID":"2022-045AN","ECCENTRICITY":"0.00009190"},{"GP_ID":"208341770","BSTAR":"-0.00697090000000","RA_OF_ASC_NODE":"46.1919","APOAPSIS":"417.628","NORAD_CAT_ID":"52368","OBJECT_ID":"2022-045AP","LAUNCH_DATE":"2022-04-29","ECCENTRICITY":"0.00012940","COUNTRY_CODE":"US","OBJECT_TYPE":"PAYLOAD","TLE_LINE1":"1 52368U 22045AP  22198.91667824 -.00378990  00000-0 -69709-2 0  9993","MEAN_MOTION":"15.49992937","ELEMENT_SET_NO":"999","MEAN_ELEMENT_THEORY":"SGP4","EPOCH":"2022-07-17T22:00:00.999936","REF_FRAME":"TEME","EPHEMERIS_TYPE":"0","PERIAPSIS":"415.869","CLASSIFICATION_TYPE":"U","FILE":"3516387","TIME_SYSTEM":"UTC","RCS_SIZE":"LARGE","REV_AT_EPOCH":"130","TLE_LINE2":"2 52368  53.2162  46.1919 0001294  66.3309 106.1927 15.49992937  1306","CENTER_NAME":"EARTH","PERIOD":"92.904","SITE":"AFETR","INCLINATION":"53.2162","SEMIMAJOR_AXIS":"6794.884","ARG_OF_PERICENTER":"66.3309","MEAN_MOTION_DOT":"-0.00378990","MEAN_MOTION_DDOT":"0.0000000000000","DECAY_DATE":null,"MEAN_ANOMALY":"106.1927","OBJECT_NAME":"STARLINK-3834"},{"CLASSIFICATION_TYPE":"U","PERIAPSIS":"414.019","EPOCH":"2022-07-17T22:00:00.999936","REF_FRAME":"TEME","EPHEMERIS_TYPE":"0","MEAN_ELEMENT_THEORY":"SGP4","CENTER_NAME":"EARTH","PERIOD":"92.867","INCLINATION":"53.2174","SITE":"AFETR","REV_AT_EPOCH":"130","TLE_LINE2":"2 52369  53.2174  45.9956 0001387  62.8081 182.7709 15.50604687  1301","FILE":"3516387","RCS_SIZE":"LARGE","TIME_SYSTEM":"UTC","MEAN_ANOMALY":"182.7709","OBJECT_NAME":"STARLINK-3841","MEAN_MOTION_DOT":"-0.01058757","MEAN_MOTION_DDOT":"0.0000000000000","DECAY_DATE":null,"SEMIMAJOR_AXIS":"6793.096","ARG_OF_PERICENTER":"62.8081","RA_OF_ASC_NODE":"45.9956","BSTAR":"-0.02002200000000","GP_ID":"208341289","ECCENTRICITY":"0.00013870","OBJECT_ID":"2022-045AQ","LAUNCH_DATE":"2022-04-29","NORAD_CAT_ID":"52369","APOAPSIS":"415.904","OBJECT_TYPE":"PAYLOAD","COUNTRY_CODE":"US","ELEMENT_SET_NO":"999","TLE_LINE1":"1 52369U 22045AQ  22198.91667824 -.01058757  00000-0 -20022-1 0  9995","MEAN_MOTION":"15.50604687"},{"ARG_OF_PERICENTER":"49.3930","SEMIMAJOR_AXIS":"6794.876","DECAY_DATE":null,"MEAN_MOTION_DOT":"-0.00371725","MEAN_MOTION_DDOT":"0.0000000000000","OBJECT_NAME":"STARLINK-3827","MEAN_ANOMALY":"121.4396","MEAN_ELEMENT_THEORY":"SGP4","EPHEMERIS_TYPE":"0","REF_FRAME":"TEME","EPOCH":"2022-07-17T22:00:00.999936","PERIAPSIS":"415.874","CLASSIFICATION_TYPE":"U","TIME_SYSTEM":"UTC","RCS_SIZE":"LARGE","FILE":"3516387","TLE_LINE2":"2 52370  53.2163  46.1670 0001276  49.3930 121.4396 15.49995720  1308","REV_AT_EPOCH":"130","INCLINATION":"53.2163","SITE":"AFETR","PERIOD":"92.903","CENTER_NAME":"EARTH","COUNTRY_CODE":"US","OBJECT_TYPE":"PAYLOAD","MEAN_MOTION":"15.49995720","TLE_LINE1":"1 52370U 22045AR  22198.91667824 -.00371725  00000-0 -68302-2 0  9993","ELEMENT_SET_NO":"999","GP_ID":"208341875","BSTAR":"-0.00683020000000","RA_OF_ASC_NODE":"46.1670","APOAPSIS":"417.608","NORAD_CAT_ID":"52370","LAUNCH_DATE":"2022-04-29","OBJECT_ID":"2022-045AR","ECCENTRICITY":"0.00012760"},{"APOAPSIS":"418.037","NORAD_CAT_ID":"52371","LAUNCH_DATE":"2022-04-29","OBJECT_ID":"2022-045AS","ECCENTRICITY":"0.00014700","BSTAR":"0.00238070000000","GP_ID":"208341545","RA_OF_ASC_NODE":"46.1795","MEAN_MOTION":"15.49894065","TLE_LINE1":"1 52371U 22045AS  22198.91667824  .00137102  00000-0  23807-2 0  9992","ELEMENT_SET_NO":"999","COUNTRY_CODE":"US","OBJECT_TYPE":"PAYLOAD","RCS_SIZE":"LARGE","TIME_SYSTEM":"UTC","FILE":"3516387","TLE_LINE2":"2 52371  53.2165  46.1795 0001470  69.1144 102.3219 15.49894065  1304","REV_AT_EPOCH":"130","INCLINATION":"53.2165","SITE":"AFETR","PERIOD":"92.910","CENTER_NAME":"EARTH","MEAN_ELEMENT_THEORY":"SGP4","EPHEMERIS_TYPE":"0","REF_FRAME":"TEME","EPOCH":"2022-07-17T22:00:00.999936","PERIAPSIS":"416.039","CLASSIFICATION_TYPE":"U","ARG_OF_PERICENTER":"69.1144","SEMIMAJOR_AXIS":"6795.173","DECAY_DATE":null,"MEAN_MOTION_DOT":"0.00137102","MEAN_MOTION_DDOT":"0.0000000000000","OBJECT_NAME":"STARLINK-3798","MEAN_ANOMALY":"102.3219"},{"DECAY_DATE":null,"MEAN_MOTION_DOT":"-0.00398201","MEAN_MOTION_DDOT":"0.0000000000000","OBJECT_NAME":"STARLINK-3796","MEAN_ANOMALY":"111.0410","ARG_OF_PERICENTER":"62.7253","SEMIMAJOR_AXIS":"6794.875","REF_FRAME":"TEME","EPHEMERIS_TYPE":"0","EPOCH":"2022-07-17T22:00:00.999936","CLASSIFICATION_TYPE":"U","PERIAPSIS":"415.842","MEAN_ELEMENT_THEORY":"SGP4","TLE_LINE2":"2 52372  53.2166  46.1992 0001321  62.7253 111.0410 15.49995978  1305","REV_AT_EPOCH":"130","INCLINATION":"53.2166","SITE":"AFETR","PERIOD":"92.903","CENTER_NAME":"EARTH","TIME_SYSTEM":"UTC","RCS_SIZE":"LARGE","FILE":"3516387","OBJECT_TYPE":"PAYLOAD","COUNTRY_CODE":"US","MEAN_MOTION":"15.49995978","TLE_LINE1":"1 52372U 22045AT  22198.91667824 -.00398201  00000-0 -73416-2 0  9995","ELEMENT_SET_NO":"999","RA_OF_ASC_NODE":"46.1992","GP_ID":"208341403","BSTAR":"-0.00734160000000","LAUNCH_DATE":"2022-04-29","OBJECT_ID":"2022-045AT","ECCENTRICITY":"0.00013210","APOAPSIS":"417.637","NORAD_CAT_ID":"52372"},{"MEAN_ANOMALY":"112.7167","OBJECT_NAME":"STARLINK-3550","MEAN_MOTION_DOT":"-0.00023832","MEAN_MOTION_DDOT":"0.0000000000000","DECAY_DATE":null,"SEMIMAJOR_AXIS":"6795.290","ARG_OF_PERICENTER":"62.6860","PERIOD":"92.912","CENTER_NAME":"EARTH","SITE":"AFETR","INCLINATION":"53.2152","REV_AT_EPOCH":"130","TLE_LINE2":"2 52373  53.2152  46.2291 0001038  62.6860 112.7167 15.49853807  1303","FILE":"3516387","RCS_SIZE":"LARGE","TIME_SYSTEM":"UTC","PERIAPSIS":"416.450","CLASSIFICATION_TYPE":"U","EPOCH":"2022-07-17T22:00:00.999936","REF_FRAME":"TEME","EPHEMERIS_TYPE":"0","MEAN_ELEMENT_THEORY":"SGP4","ELEMENT_SET_NO":"999","TLE_LINE1":"1 52373U 22045AU  22198.91667824 -.00023832  00000-0 -41368-3 0  9993","MEAN_MOTION":"15.49853807","OBJECT_TYPE":"PAYLOAD","COUNTRY_CODE":"US","ECCENTRICITY":"0.00010380","OBJECT_ID":"2022-045AU","LAUNCH_DATE":"2022-04-29","NORAD_CAT_ID":"52373","APOAPSIS":"417.861","RA_OF_ASC_NODE":"46.2291","BSTAR":"-0.00041368000000","GP_ID":"208341657"},{"SEMIMAJOR_AXIS":"6795.432","ARG_OF_PERICENTER":"66.4730","MEAN_ANOMALY":"107.8173","OBJECT_NAME":"STARLINK-3762","MEAN_MOTION_DOT":"0.00422292","MEAN_MOTION_DDOT":"0.0000000000000","DECAY_DATE":null,"FILE":"3516387","RCS_SIZE":"LARGE","TIME_SYSTEM":"UTC","CENTER_NAME":"EARTH","PERIOD":"92.915","INCLINATION":"53.2167","SITE":"AFETR","REV_AT_EPOCH":"130","TLE_LINE2":"2 52374  53.2167  46.2236 0001677  66.4730 107.8173 15.49805248  1304","MEAN_ELEMENT_THEORY":"SGP4","CLASSIFICATION_TYPE":"U","PERIAPSIS":"416.158","EPOCH":"2022-07-17T22:00:00.999936","EPHEMERIS_TYPE":"0","REF_FRAME":"TEME","ELEMENT_SET_NO":"999","TLE_LINE1":"1 52374U 22045AV  22198.91667824  .00422292  00000-0  70741-2 0  9991","MEAN_MOTION":"15.49805248","COUNTRY_CODE":"US","OBJECT_TYPE":"PAYLOAD","NORAD_CAT_ID":"52374","APOAPSIS":"418.437","ECCENTRICITY":"0.00016770","OBJECT_ID":"2022-045AV","LAUNCH_DATE":"2022-04-29","GP_ID":"208341960","BSTAR":"0.00707410000000","RA_OF_ASC_NODE":"46.2236"},{"TLE_LINE1":"1 52375U 22045AW  22198.91667824 -.00719990  00000-0 -14365-1 0  9997","MEAN_MOTION":"15.48540517","ELEMENT_SET_NO":"999","COUNTRY_CODE":"US","OBJECT_TYPE":"PAYLOAD","APOAPSIS":"421.865","NORAD_CAT_ID":"52375","OBJECT_ID":"2022-045AW","LAUNCH_DATE":"2022-04-29","ECCENTRICITY":"0.00012770","BSTAR":"-0.01436500000000","GP_ID":"208341177","RA_OF_ASC_NODE":"46.7825","SEMIMAJOR_AXIS":"6799.132","ARG_OF_PERICENTER":"83.9294","MEAN_MOTION_DOT":"-0.00719990","MEAN_MOTION_DDOT":"0.0000000000000","DECAY_DATE":null,"MEAN_ANOMALY":"164.4987","OBJECT_NAME":"STARLINK-3785","FILE":"3516387","TIME_SYSTEM":"UTC","RCS_SIZE":"LARGE","REV_AT_EPOCH":"130","TLE_LINE2":"2 52375  53.2174  46.7825 0001277  83.9294 164.4987 15.48540517  1303","PERIOD":"92.991","CENTER_NAME":"EARTH","SITE":"AFETR","INCLINATION":"53.2174","MEAN_ELEMENT_THEORY":"SGP4","EPOCH":"2022-07-17T22:00:00.999936","EPHEMERIS_TYPE":"0","REF_FRAME":"TEME","PERIAPSIS":"420.129","CLASSIFICATION_TYPE":"U"},{"ELEMENT_SET_NO":"999","TLE_LINE1":"1 52376U 22045AX  22198.91667824 -.01062346  00000-0 -18094-1 0  9998","MEAN_MOTION":"15.53504954","OBJECT_TYPE":"PAYLOAD","COUNTRY_CODE":"US","ECCENTRICITY":"0.00012300","OBJECT_ID":"2022-045AX","LAUNCH_DATE":"2022-04-29","NORAD_CAT_ID":"52376","APOAPSIS":"407.339","RA_OF_ASC_NODE":"45.9612","BSTAR":"-0.01809400000000","GP_ID":"208341771","MEAN_ANOMALY":"249.8929","OBJECT_NAME":"STARLINK-3767","MEAN_MOTION_DDOT":"0.0000000000000","MEAN_MOTION_DOT":"-0.01062346","DECAY_DATE":null,"SEMIMAJOR_AXIS":"6784.639","ARG_OF_PERICENTER":"62.9139","PERIOD":"92.694","CENTER_NAME":"EARTH","SITE":"AFETR","INCLINATION":"53.2174","REV_AT_EPOCH":"130","TLE_LINE2":"2 52376  53.2174  45.9612 0001230  62.9139 249.8929 15.53504954  1308","FILE":"3516387","TIME_SYSTEM":"UTC","RCS_SIZE":"LARGE","CLASSIFICATION_TYPE":"U","PERIAPSIS":"405.670","EPOCH":"2022-07-17T22:00:00.999936","REF_FRAME":"TEME","EPHEMERIS_TYPE":"0","MEAN_ELEMENT_THEORY":"SGP4"}];
